NAVSTAR 77 (USA 289)    
1 43873U 18109A   24111.75524119  .00000078  00000+0  00000+0 0  9990
2 43873  55.2743 123.2959 0028581 195.7922 166.5872  2.00553544 39288
